[{"OBJECT_NAME":"STARLINK-4184","OBJECT_ID":"2022-062Y","EPOCH":"2026-03-09T01:09:20.449440","MEAN_MOTION":15.08833143,"ECCENTRICITY":0.00015065,"INCLINATION":53.2188,"RA_OF_ASC_NODE":26.9984,"ARG_OF_PERICENTER":90.3183,"MEAN_ANOMALY":269.7982,"EPHEMERIS_TYPE":0,"CLASSIFICATION_TYPE":"U","NORAD_CAT_ID":52852,"ELEMENT_SET_NO":999,"REV_AT_EPOCH":20582,"BSTAR":-3.8868107e-5,"MEAN_MOTION_DOT":-9.06e-6,"MEAN_MOTION_DDOT":0},{"OBJECT_NAME":"UNKNOWN","OBJECT_ID":"","EPOCH":"2026-03-05T04:31:40.416672","MEAN_MOTION":13.50446293,"ECCENTRICITY":0.07266062,"INCLINATION":62.7985,"RA_OF_ASC_NODE":224.4342,"ARG_OF_PERICENTER":356.8008,"MEAN_ANOMALY":2.8494,"EPHEMERIS_TYPE":0,"CLASSIFICATION_TYPE":"U","NORAD_CAT_ID":270070,"ELEMENT_SET_NO":999,"REV_AT_EPOCH":30839,"BSTAR":0.00030751603,"MEAN_MOTION_DOT":9.61e-6,"MEAN_MOTION_DDOT":0}]
